PROBA-1                 
1 26958U 01049B   22247.46701553  .00000777  00000+0  70124-4 0  9990
2 26958  97.8297 207.3654 0072929  80.6822 280.2636 14.96517194136224
BIRD 2                  
1 26959U 01049C   22247.51699195  .00015365  00000+0  31674-3 0  9990
2 26959  97.7619 344.7435 0007614  90.8470 269.3650 15.45974147465393
CUTE-1 (CO-55)          
1 27844U 03031E   22247.48858218  .00000184  00000+0  10194-3 0  9993
2 27844  98.6806 253.9869 0008882 228.9167 131.1245 14.22487007995103
CUBESAT XI-IV (CO-57)   
1 27848U 03031J   22247.47629495  .00000145  00000+0  85431-4 0  9993
2 27848  98.6850 254.4776 0008629 244.9249 115.1034 14.22039437994913
GENESIS 1               
1 29252U 06029A   22247.49656335  .00003933  00000+0  17764-3 0  9990
2 29252  64.5215 171.4227 0056613 250.0815 109.4205 15.21188801890992
FALCONSAT-3             
1 30776U 07006E   22247.04986997  .00046112  00000+0  57922-3 0  9996
2 30776  35.4295 103.3955 0002769 358.6238   1.4488 15.58616832861834
GENESIS 2               
1 31789U 07028A   22247.36355537  .00003590  00000+0  16896-3 0  9998
2 31789  64.4953 215.2396 0054494 302.4495  57.1366 15.20058584837893
APRIZESAT 4             
1 35684U 09041D   22247.01544763  .00000363  00000+0  55114-4 0  9998
2 35684  98.3107 263.3525 0048120  99.5219 261.1434 14.79711846706688
APRIZESAT 3             
1 35686U 09041F   22247.51396676  .00000590  00000+0  68124-4 0  9990
2 35686  98.1053 335.9458 0070663 288.3466  71.0073 14.88025662710369
PROBA-2                 
1 36037U 09059B   22247.47037308  .00000115  00000+0  38465-4 0  9997
2 36037  98.2252  72.5830 0012511 221.6293 138.3952 14.53286236680734
APRIZESAT 5             
1 37792U 11044E   22247.49133120  .00000425  00000+0  68414-4 0  9995
2 37792  98.3128 125.2038 0058899 111.8494 248.8993 14.75822749594807
APRIZESAT 6             
1 37793U 11044F   22247.34460381  .00000242  00000+0  45814-4 0  9998
2 37793  98.3928 102.0660 0046873 163.9052   9.7885 14.72838996593471
TET-1                   
1 38710U 12039D   22247.52475629  .00096827  00000+0  53992-3 0  9993
2 38710  97.5033 334.5440 0001891 146.3572 213.7815 15.79145605569851
PROBA-V                 
1 39159U 13021A   22247.32621475 -.00000003  00000+0  17023-4 0  9991
2 39159  98.3525 279.2280 0003539 205.2241 154.8765 14.23046018484547
STPSAT-3                
1 39380U 13064A   22247.47684194  .00032443  00000+0  61010-3 0  9993
2 39380  40.4974 281.3084 0007138 172.9105 187.1815 15.47823189491534
APRIZESAT 7             
1 39416U 13066A   22247.48387421  .00000640  00000+0  80800-4 0  9992
2 39416  97.5797 223.6922 0042336  97.3937 263.2093 14.84546035475765
APRIZESAT 8             
1 39425U 13066K   22247.46537564  .00000492  00000+0  67493-4 0  9993
2 39425  97.6345 215.2032 0052424 140.4619 220.0438 14.81690245474662
BUGSAT-1 (TITA)         
1 40014U 14033E   22247.55121364  .00001297  00000+0  11743-3 0  9991
2 40014  98.1453 249.2084 0031782 133.8416 226.5440 14.96938934447977
SAUDISAT 4              
1 40016U 14033G   22247.50286035  .00000324  00000+0  53916-4 0  9994
2 40016  97.6406  78.0023 0046705 244.2533 115.3852 14.75609017442072
APRIZESAT 9             
1 40018U 14033J   22247.41505432  .00000201  00000+0  40093-4 0  9997
2 40018  97.7231  53.7934 0070097 320.9530  38.6628 14.70315399440250
APRIZESAT 10            
1 40019U 14033K   22247.39216559  .00000147  00000+0  33019-4 0  9993
2 40019  97.7784  43.5880 0083975   5.4643 354.7458 14.67356352439374
TDS 1                   
1 40076U 14037H   22247.37202460  .00001109  00000+0  13420-3 0  9996
2 40076  98.3793 124.4744 0006855 164.8967 195.2452 14.85878106441420
TIANTUO 2               
1 40144U 14053B   22247.47182103  .00003537  00000+0  94812-4 0  9994
2 40144  97.1891 325.8632 0008970 274.5543 141.5192 15.38605039447247
TECHNOSAT               
1 42829U 17042E   22247.55974815  .00000879  00000+0  91587-4 0  9997
2 42829  97.4132  97.0583 0015517 101.3196 258.9768 14.92011800279880
FLYING LAPTOP           
1 42831U 17042G   22247.40726487  .00000928  00000+0  96772-4 0  9990
2 42831  97.4154  97.2476 0015423 102.7413 257.5556 14.91897183279866
HAWK-A                  
1 43765U 18099H   22247.47355152  .00001892  00000+0  16787-3 0  9992
2 43765  97.6135 313.4676 0014823  13.5979 346.5640 14.97275807204969
HAWK-B                  
1 43794U 18099AN  22247.13978967  .00001525  00000+0  13627-3 0  9995
2 43794  97.6136 313.1423 0014908  14.8357 345.3299 14.97272409204903
HAWK-C                  
1 43799U 18099AT  22247.47375537  .00001890  00000+0  16774-3 0  9992
2 43799  97.6134 313.3755 0014797  13.5996 346.5622 14.97276084205702
SALSAT                  
1 46495U 20068K   22247.36746481  .00001515  00000+0  11163-3 0  9996
2 46495  97.7336 188.7205 0016903  16.7608 343.4173 15.04778208106052
